NORAD_CAT_ID,OBJECT_NAME,OBJECT_TYPE,EPOCH,MEAN_MOTION,ECCENTRICITY,INCLINATION,RA_OF_ASC_NODE,ARG_OF_PERICENTER,MEAN_ANOMALY,BSTAR,MEAN_MOTION_DOT,MEAN_MOTION_DDOT,TLE_LINE0,TLE_LINE1,TLE_LINE2,SEMIMAJOR_AXIS,PERIOD,APOGEE,PERIGEE,DECAYED
53006.0,STARLINK-4290,PAYLOAD,2023-01-07 22:00:23,15.08823853,0.000241,53.2169,247.0785,33.8815,326.233,0.00035751,5.404e-05,0.0,0 STARLINK-4290,1 53006U 22076W   23007.91694262  .00005404  00000-0  35751-3 0  9999,2 53006  53.2169 247.0785 0002410  33.8815 326.2330 15.08823853 28686,6917.93,95.439,541.462,538.128,0.0
53006.0,STARLINK-4290,PAYLOAD,2023-01-08 09:08:05,15.08836717,0.0002547,53.2167,244.9973,34.0801,326.0355,0.00051629,7.938e-05,0.0,0 STARLINK-4290,1 53006U 22076W   23008.38062341  .00007938  00000-0  51629-3 0  9994,2 53006  53.2167 244.9973 0002547  34.0801 326.0355 15.08836717 28282,6917.89,95.438,541.5169999999998,537.993,0.0
53006.0,STARLINK-4290,PAYLOAD,2023-01-08 18:40:24,15.08850678,0.0002562,53.2163,243.2133,35.4862,324.63,0.00075956,0.00011825,0.0,0 STARLINK-4290,1 53006U 22076W   23008.77806193  .00011825  00000-0  75956-3 0  9997,2 53006  53.2163 243.2133 0002562  35.4862 324.6300 15.08850678 28812,6917.848000000001,95.437,541.485,537.94,0.0
53006.0,STARLINK-4290,PAYLOAD,2023-01-08 21:51:10,15.08856548,0.0002573,53.2163,242.6182,35.2797,324.8365,0.0010339,0.00016213,0.0,0 STARLINK-4290,1 53006U 22076W   23008.91054102  .00016213  00000-0  10339-2 0  9997,2 53006  53.2163 242.6182 0002573  35.2797 324.8365 15.08856548 28361,6917.83,95.437,541.475,537.915,0.0
53006.0,STARLINK-4290,PAYLOAD,2023-01-09 08:58:52,15.08855886,0.0002539,53.2167,240.5362,35.503,324.613,0.00056619,8.738e-05,0.0,0 STARLINK-4290,1 53006U 22076W   23009.37421793  .00008738  00000-0  56619-3 0  9997,2 53006  53.2167 240.5362 0002539  35.5030 324.6130 15.08855886 28437,6917.831999999999,95.437,541.453,537.94,0.0
53006.0,STARLINK-4290,PAYLOAD,2023-01-10 00:52:43,15.08857594,0.0002627,53.2165,237.5629,36.8941,323.2231,0.00042283,6.451e-05,0.0,0 STARLINK-4290,1 53006U 22076W   23010.03661283  .00006451  00000-0  42283-3 0  9994,2 53006  53.2165 237.5629 0002627  36.8941 323.2231 15.08857594 29009,6917.826999999998,95.436,541.509,537.874,0.0
53006.0,STARLINK-4290,PAYLOAD,2023-01-10 13:35:48,15.08839723,0.0002406,53.2167,235.1824,42.2337,317.884,-5.1239e-06,-3.700000000000001e-06,0.0,0 STARLINK-4290,1 53006U 22076W   23010.56653534 -.00000370  00000-0 -51239-5 0  9991,2 53006  53.2167 235.1824 0002406  42.2337 317.8840 15.08839723 29084,6917.880999999999,95.438,541.411,538.082,0.0
53006.0,STARLINK-4290,PAYLOAD,2023-01-10 15:11:11,15.08838848,0.0002583999999999,53.2162,234.8862,40.3673,319.751,1.1738e-05,-1.02e-06,0.0,0 STARLINK-4290,1 53006U 22076W   23010.63277632 -.00000102  00000-0  11738-4 0  9991,2 53006  53.2162 234.8862 0002584  40.3673 319.7510 15.08838848 28627,6917.884,95.438,541.536,537.961,0.0
53006.0,STARLINK-4290,PAYLOAD,2023-01-11 00:43:30,15.08838609,0.0002569,53.2166,233.1029,35.7846,324.3318,0.0003426,5.168e-05,0.0,0 STARLINK-4290,1 53006U 22076W   23011.03021958  .00005168  00000-0  34260-3 0  9994,2 53006  53.2166 233.1029 0002569  35.7846 324.3318 15.08838609 28680,6917.885,95.438,541.5269999999998,537.972,0.0
53006.0,STARLINK-4290,PAYLOAD,2023-01-11 21:23:31,15.08849872,0.0002491,53.2167,229.237,41.2702,318.8478,0.00058146,8.98e-05,0.0,0 STARLINK-4290,1 53006U 22076W   23011.89133920  .00008980  00000-0  58146-3 0  9995,2 53006  53.2167 229.2370 0002491  41.2702 318.8478 15.08849872 28817,6917.85,95.437,541.438,537.992,0.0
53006.0,STARLINK-4290,PAYLOAD,2023-01-12 00:34:17,15.08852774,0.0002536,53.2172,228.6422,42.0327,318.0859,0.00058825,9.09e-05,0.0,0 STARLINK-4290,1 53006U 22076W   23012.02381800  .00009090  00000-0  58825-3 0  9990,2 53006  53.2172 228.6422 0002536  42.0327 318.0859 15.08852774 29301,6917.840999999999,95.437,541.461,537.952,0.0
53006.0,STARLINK-4290,PAYLOAD,2023-01-12 14:52:46,15.08838632,0.000238,53.2174,225.9671,47.5685,312.5508,8.4406e-05,1.055e-05,0.0,0 STARLINK-4290,1 53006U 22076W   23012.61998148  .00001055  00000-0  84406-4 0  9992,2 53006  53.2174 225.9671 0002380  47.5685 312.5508 15.08838632 29399,6917.885,95.438,541.396,538.1030000000002,0.0
53006.0,STARLINK-4290,PAYLOAD,2023-01-12 21:14:18,15.08841841,0.000239,53.218,224.7773,48.6081,311.5117,0.00014146,1.964e-05,0.0,0 STARLINK-4290,1 53006U 22076W   23012.88494102  .00001964  00000-0  14146-3 0  9994,2 53006  53.2180 224.7773 0002390  48.6081 311.5117 15.08841841 28962,6917.875,95.437,541.393,538.086,0.0
53006.0,STARLINK-4290,PAYLOAD,2023-01-13 06:46:37,15.08838008,0.0002426,53.2167,222.9924,48.0009,312.1189,9.5347e-05,1.229e-05,0.0,0 STARLINK-4290,1 53006U 22076W   23013.28238235  .00001229  00000-0  95347-4 0  9999,2 53006  53.2167 222.9924 0002426  48.0009 312.1189 15.08838008 29024,6917.886,95.438,541.43,538.073,0.0
53006.0,STARLINK-4290,PAYLOAD,2023-01-14 06:37:25,15.08840179,0.0002369,53.2164,218.5318,50.2847,309.8354,0.00017034,2.424e-05,0.0,0 STARLINK-4290,1 53006U 22076W   23014.27598383  .00002424  00000-0  17034-3 0  9996,2 53006  53.2164 218.5318 0002369  50.2847 309.8354 15.08840179 29647,6917.88,95.438,541.384,538.106,0.0
53006.0,STARLINK-4290,PAYLOAD,2023-01-15 12:49:44,15.08839083,0.0002411999999999,53.216,212.8831,52.251000000000005,307.87,9.2288e-05,1.181e-05,0.0,0 STARLINK-4290,1 53006U 22076W   23015.53454692  .00001181  00000-0  92288-4 0  9994,2 53006  53.2160 212.8831 0002412  52.2510 307.8700 15.08839083 29834,6917.883000000001,95.438,541.4169999999999,538.08,0.0
53006.0,STARLINK-4290,PAYLOAD,2023-01-15 20:46:40,15.08848758,0.0002329,53.2166,211.3959,50.3897,309.7301,-2.1285e-05,-6.27e-06,0.0,0 STARLINK-4290,1 53006U 22076W   23015.86574368 -.00000627  00000-0 -21285-4 0  9998,2 53006  53.2166 211.3959 0002329  50.3897 309.7301 15.08848758 29410,6917.854,95.437,541.33,538.107,0.0
53006.0,STARLINK-4290,PAYLOAD,2023-01-16 12:40:32,15.08836759,0.0002315,53.2166,208.4224,54.1724,305.9483,7.0898e-05,8.400000000000001e-06,0.0,0 STARLINK-4290,1 53006U 22076W   23016.52814970  .00000840  00000-0  70898-4 0  9997,2 53006  53.2166 208.4224 0002315  54.1724 305.9483 15.08836759 29516,6917.89,95.438,541.357,538.154,0.0
53006.0,STARLINK-4290,PAYLOAD,2023-01-16 19:02:04,15.08841251,0.0002295999999999,53.2173,207.2325,55.7892,304.3317,8.9275e-05,1.133e-05,0.0,0 STARLINK-4290,1 53006U 22076W   23016.79310602  .00001133  00000-0  89275-4 0  9994,2 53006  53.2173 207.2325 0002296  55.7892 304.3317 15.08841251 30024,6917.877,95.437,541.33,538.153,0.0
53006.0,STARLINK-4290,PAYLOAD,2023-01-17 12:31:19,15.08836437,0.0002301,53.2174,203.9614,57.0016,303.1197,4.0028e-05,3.49e-06,0.0,0 STARLINK-4290,1 53006U 22076W   23017.52175009  .00000349  00000-0  40028-4 0  9997,2 53006  53.2174 203.9614 0002301  57.0016 303.1197 15.08836437 30134,6917.891,95.438,541.3480000000001,538.164,0.0
53006.0,STARLINK-4290,PAYLOAD,2023-01-17 18:52:51,15.08840711,0.0002268,53.2175,202.772,57.9408,302.1804,7.2265e-05,8.62e-06,0.0,0 STARLINK-4290,1 53006U 22076W   23017.78670651  .00000862  00000-0  72265-4 0  9996,2 53006  53.2175 202.7720 0002268  57.9408 302.1804 15.08840711 29701,6917.878000000001,95.438,541.312,538.174,0.0
53006.0,STARLINK-4290,PAYLOAD,2023-01-18 12:22:05,15.08839656,0.0002272,53.2178,199.5008,61.0911,299.0308,7.1641e-05,8.52e-06,0.0,0 STARLINK-4290,1 53006U 22076W   23018.51534703  .00000852  00000-0  71641-4 0  9991,2 53006  53.2178 199.5008 0002272  61.0911 299.0308 15.08839656 29817,6917.880999999999,95.438,541.318,538.175,0.0
53006.0,STARLINK-4290,PAYLOAD,2023-01-18 15:32:52,15.08838506,0.0002231999999999,53.2181,198.9063,60.4642,299.6572,0.00014762,2.062e-05,0.0,0 STARLINK-4290,1 53006U 22076W   23018.64782548  .00002062  00000-0  14762-3 0  9992,2 53006  53.2181 198.9063 0002232  60.4642 299.6572 15.08838506 30303,6917.885,95.438,541.294,538.206,0.0
53006.0,STARLINK-4290,PAYLOAD,2023-01-18 18:43:38,15.08842036,0.0002237,53.218,198.3116,60.7292,299.3923,0.00016035,2.265e-05,0.0,0 STARLINK-4290,1 53006U 22076W   23018.78030287  .00002265  00000-0  16035-3 0  9993,2 53006  53.2180 198.3116 0002237  60.7292 299.3923 15.08842036 29852,6917.874,95.437,541.2869999999999,538.192,0.0
53006.0,STARLINK-4290,PAYLOAD,2023-01-19 10:37:30,15.08837082,0.0002411,53.2183,195.3404,60.485,299.6382,2.9329e-05,1.78e-06,0.0,0 STARLINK-4290,1 53006U 22076W   23019.44271046  .00000178  00000-0  29329-4 0  9999,2 53006  53.2183 195.3404 0002411  60.4850 299.6382 15.08837082 29951,6917.889,95.438,541.422,538.086,0.0
53006.0,STARLINK-4290,PAYLOAD,2023-01-19 18:34:26,15.08836785,0.0002466,53.2181,193.8528,63.1854,296.9391,-3.5301999999999995e-05,-8.5e-06,0.0,0 STARLINK-4290,1 53006U 22076W   23019.77391310 -.00000850  00000-0 -35302-4 0  9999,2 53006  53.2181 193.8528 0002466  63.1854 296.9391 15.08836785 30471,6917.89,95.438,541.461,538.049,0.0
53006.0,STARLINK-4290,PAYLOAD,2023-01-20 04:06:44,15.08837828,0.0002177999999999,53.2186,192.0682,64.1886,295.933,3.0493e-05,1.97e-06,0.0,0 STARLINK-4290,1 53006U 22076W   23020.17135107  .00000197  00000-0  30493-4 0  9993,2 53006  53.2186 192.0682 0002178  64.1886 295.9330 15.08837828 30060,6917.887,95.438,541.259,538.245,0.0
53006.0,STARLINK-4290,PAYLOAD,2023-01-20 18:25:12,15.08845773,0.0002141,53.2191,189.3922,65.0942,295.0273,4.146e-05,3.72e-06,0.0,0 STARLINK-4290,1 53006U 22076W   23020.76750589  .00000372  00000-0  41460-4 0  9996,2 53006  53.2191 189.3922 0002141  65.0942 295.0273 15.08845773 30622,6917.863,95.437,541.2090000000001,538.247,0.0
53006.0,STARLINK-4290,PAYLOAD,2023-01-21 11:54:27,15.08831795,0.0002075,53.2185,186.1207,66.2118,293.9091,9.0077e-05,1.145e-05,0.0,0 STARLINK-4290,1 53006U 22076W   23021.49615419  .00001145  00000-0  90077-4 0  9996,2 53006  53.2185 186.1207 0002075  66.2118 293.9091 15.08831795 30736,6917.905,95.438,541.206,538.335,0.0
